start=new Date('2022-10-05T00:00:00.000Z').valueOf();
sats=[{"MEAN_MOTION_DOT":"-0.01258384","RCS_SIZE":null,"OBJECT_NAME":"STARLINK-5048","RA_OF_ASC_NODE":"203.7564","TLE_LINE2":"2 53911  53.2184 203.7564 0005306 270.4840 141.9954 15.78389759  1309","ECCENTRICITY":"0.00053060","REF_FRAME":"TEME","EPHEMERIS_TYPE":"0","INCLINATION":"53.2184","PERIAPSIS":"331.443","CLASSIFICATION_TYPE":"U","LAUNCH_DATE":"2022-09-24","ARG_OF_PERICENTER":"270.4840","CENTER_NAME":"EARTH","APOAPSIS":"338.566","MEAN_ELEMENT_THEORY":"SGP4","SITE":"AFETR","OBJECT_TYPE":"PAYLOAD","DECAY_DATE":null,"TIME_SYSTEM":"UTC","MEAN_MOTION_DDOT":"0.0000000000000","REV_AT_EPOCH":"130","OBJECT_ID":"2022-119AB","TLE_LINE1":"1 53911U 22119AB  22277.91667824 -.01258384  00000-0 -80667-2 0  9999","FILE":"3591597","EPOCH":"2022-10-04T22:00:00.999936","GP_ID":"214194640","MEAN_MOTION":"15.78389759","SEMIMAJOR_AXIS":"6713.139","MEAN_ANOMALY":"141.9954","PERIOD":"91.232","COUNTRY_CODE":"US","NORAD_CAT_ID":"53911","BSTAR":"-0.00806670000000","ELEMENT_SET_NO":"999"},{"SEMIMAJOR_AXIS":"6713.178","MEAN_ANOMALY":"13.1663","COUNTRY_CODE":"US","BSTAR":"-0.00735240000000","ELEMENT_SET_NO":"999","NORAD_CAT_ID":"53912","PERIOD":"91.233","EPOCH":"2022-10-04T22:00:00.999936","GP_ID":"214194141","MEAN_MOTION":"15.78376036","FILE":"3591597","OBJECT_ID":"2022-119AC","TLE_LINE1":"1 53912U 22119AC  22277.91667824 -.01155753  00000-0 -73524-2 0  9990","OBJECT_TYPE":"PAYLOAD","SITE":"AFETR","REV_AT_EPOCH":"130","TIME_SYSTEM":"UTC","DECAY_DATE":null,"MEAN_MOTION_DDOT":"0.0000000000000","APOAPSIS":"335.952","MEAN_ELEMENT_THEORY":"SGP4","CENTER_NAME":"EARTH","ARG_OF_PERICENTER":"41.2913","LAUNCH_DATE":"2022-09-24","EPHEMERIS_TYPE":"0","PERIAPSIS":"334.135","INCLINATION":"53.2184","CLASSIFICATION_TYPE":"U","TLE_LINE2":"2 53912  53.2184 203.7530 0001353  41.2913  13.1663 15.78376036  1307","MEAN_MOTION_DOT":"-0.01155753","RCS_SIZE":null,"OBJECT_NAME":"STARLINK-5059","RA_OF_ASC_NODE":"203.7530","REF_FRAME":"TEME","ECCENTRICITY":"0.00013530"},{"REV_AT_EPOCH":"130","DECAY_DATE":null,"TIME_SYSTEM":"UTC","MEAN_MOTION_DDOT":"0.0000000000000","OBJECT_TYPE":"PAYLOAD","SITE":"AFETR","FILE":"3591597","OBJECT_ID":"2022-119AD","TLE_LINE1":"1 53913U 22119AD  22277.91667824 -.01281844  00000-0 -81987-2 0  9994","MEAN_MOTION":"15.78517686","GP_ID":"214194721","EPOCH":"2022-10-04T22:00:00.999936","COUNTRY_CODE":"US","ELEMENT_SET_NO":"999","BSTAR":"-0.00819870000000","NORAD_CAT_ID":"53913","PERIOD":"91.225","SEMIMAJOR_AXIS":"6712.777","MEAN_ANOMALY":"131.6984","REF_FRAME":"TEME","ECCENTRICITY":"0.00038210","TLE_LINE2":"2 53913  53.2184 203.7497 0003821 284.1513 131.6984 15.78517686  1306","MEAN_MOTION_DOT":"-0.01281844","RCS_SIZE":null,"OBJECT_NAME":"STARLINK-5053","RA_OF_ASC_NODE":"203.7497","INCLINATION":"53.2184","PERIAPSIS":"332.077","CLASSIFICATION_TYPE":"U","EPHEMERIS_TYPE":"0","ARG_OF_PERICENTER":"284.1513","LAUNCH_DATE":"2022-09-24","APOAPSIS":"337.207","MEAN_ELEMENT_THEORY":"SGP4","CENTER_NAME":"EARTH"},{"MEAN_MOTION":"15.78527290","EPOCH":"2022-10-04T22:00:00.999936","GP_ID":"214194307","PERIOD":"91.224","COUNTRY_CODE":"US","ELEMENT_SET_NO":"999","BSTAR":"-0.00808540000000","NORAD_CAT_ID":"53914","MEAN_ANOMALY":"145.4632","SEMIMAJOR_AXIS":"6712.750","MEAN_MOTION_DDOT":"0.0000000000000","DECAY_DATE":null,"TIME_SYSTEM":"UTC","REV_AT_EPOCH":"130","SITE":"AFETR","OBJECT_TYPE":"PAYLOAD","TLE_LINE1":"1 53914U 22119AE  22277.91667824 -.01268470  00000-0 -80854-2 0  9997","OBJECT_ID":"2022-119AE","FILE":"3591597","LAUNCH_DATE":"2022-09-24","ARG_OF_PERICENTER":"270.8445","CENTER_NAME":"EARTH","MEAN_ELEMENT_THEORY":"SGP4","APOAPSIS":"338.556","ECCENTRICITY":"0.00058720","REF_FRAME":"TEME","RA_OF_ASC_NODE":"203.7490","MEAN_MOTION_DOT":"-0.01268470","RCS_SIZE":null,"OBJECT_NAME":"STARLINK-5040","TLE_LINE2":"2 53914  53.2184 203.7490 0005872 270.8445 145.4632 15.78527290  1309","CLASSIFICATION_TYPE":"U","PERIAPSIS":"330.673","INCLINATION":"53.2184","EPHEMERIS_TYPE":"0"},{"FILE":"3591597","OBJECT_ID":"2022-119AF","TLE_LINE1":"1 53915U 22119AF  22277.91667824 -.01281576  00000-0 -82171-2 0  9994","OBJECT_TYPE":"PAYLOAD","SITE":"AFETR","REV_AT_EPOCH":"130","DECAY_DATE":null,"TIME_SYSTEM":"UTC","MEAN_MOTION_DDOT":"0.0000000000000","SEMIMAJOR_AXIS":"6712.942","MEAN_ANOMALY":"135.5798","COUNTRY_CODE":"US","BSTAR":"-0.00821710000000","NORAD_CAT_ID":"53915","ELEMENT_SET_NO":"999","PERIOD":"91.228","EPOCH":"2022-10-04T22:00:00.999936","GP_ID":"214194887","MEAN_MOTION":"15.78459348","EPHEMERIS_TYPE":"0","INCLINATION":"53.2185","PERIAPSIS":"332.071","CLASSIFICATION_TYPE":"U","TLE_LINE2":"2 53915  53.2185 203.7538 0004076 278.3064 135.5798 15.78459348  1300","RCS_SIZE":null,"OBJECT_NAME":"STARLINK-5017","MEAN_MOTION_DOT":"-0.01281576","RA_OF_ASC_NODE":"203.7538","REF_FRAME":"TEME","ECCENTRICITY":"0.00040760","MEAN_ELEMENT_THEORY":"SGP4","APOAPSIS":"337.543","CENTER_NAME":"EARTH","ARG_OF_PERICENTER":"278.3064","LAUNCH_DATE":"2022-09-24"},{"EPHEMERIS_TYPE":"0","PERIAPSIS":"336.360","INCLINATION":"53.2171","CLASSIFICATION_TYPE":"U","TLE_LINE2":"2 53916  53.2171 203.7456 0000817 110.4040 306.8340 15.77718376  1308","MEAN_MOTION_DOT":"-0.00154047","RCS_SIZE":null,"OBJECT_NAME":"STARLINK-5051","RA_OF_ASC_NODE":"203.7456","REF_FRAME":"TEME","ECCENTRICITY":"0.00008170","APOAPSIS":"337.457","MEAN_ELEMENT_THEORY":"SGP4","CENTER_NAME":"EARTH","ARG_OF_PERICENTER":"110.4040","LAUNCH_DATE":"2022-09-24","FILE":"3591597","OBJECT_ID":"2022-119AG","TLE_LINE1":"1 53916U 22119AG  22277.91667824 -.00154047  00000-0 -91319-3 0  9991","OBJECT_TYPE":"PAYLOAD","SITE":"AFETR","REV_AT_EPOCH":"130","DECAY_DATE":null,"TIME_SYSTEM":"UTC","MEAN_MOTION_DDOT":"0.0000000000000","SEMIMAJOR_AXIS":"6715.044","MEAN_ANOMALY":"306.8340","NORAD_CAT_ID":"53916","COUNTRY_CODE":"US","BSTAR":"-0.00091319000000","ELEMENT_SET_NO":"999","PERIOD":"91.271","EPOCH":"2022-10-04T22:00:00.999936","GP_ID":"214193723","MEAN_MOTION":"15.77718376"},{"COUNTRY_CODE":"US","BSTAR":"-0.00812790000000","ELEMENT_SET_NO":"999","NORAD_CAT_ID":"53917","PERIOD":"91.226","MEAN_ANOMALY":"144.5574","SEMIMAJOR_AXIS":"6712.835","MEAN_MOTION":"15.78497048","GP_ID":"214194474","EPOCH":"2022-10-04T22:00:00.999936","FILE":"3591597","OBJECT_ID":"2022-119AH","TLE_LINE1":"1 53917U 22119AH  22277.91667824 -.01272416  00000-0 -81279-2 0  9997","REV_AT_EPOCH":"130","DECAY_DATE":null,"TIME_SYSTEM":"UTC","MEAN_MOTION_DDOT":"0.0000000000000","OBJECT_TYPE":"PAYLOAD","SITE":"AFETR","APOAPSIS":"338.363","MEAN_ELEMENT_THEORY":"SGP4","CENTER_NAME":"EARTH","ARG_OF_PERICENTER":"270.7982","LAUNCH_DATE":"2022-09-24","INCLINATION":"53.2184","PERIAPSIS":"331.037","CLASSIFICATION_TYPE":"U","EPHEMERIS_TYPE":"0","REF_FRAME":"TEME","ECCENTRICITY":"0.00054570","TLE_LINE2":"2 53917  53.2184 203.7511 0005457 270.7982 144.5574 15.78497048  1302","OBJECT_NAME":"STARLINK-5036","RCS_SIZE":null,"MEAN_MOTION_DOT":"-0.01272416","RA_OF_ASC_NODE":"203.7511"},{"EPHEMERIS_TYPE":"0","INCLINATION":"53.2184","PERIAPSIS":"330.865","CLASSIFICATION_TYPE":"U","MEAN_MOTION_DOT":"-0.01238958","RCS_SIZE":null,"OBJECT_NAME":"STARLINK-5012","RA_OF_ASC_NODE":"203.7472","TLE_LINE2":"2 53918  53.2184 203.7472 0005562 270.2000 147.1075 15.78532779  1308","ECCENTRICITY":"0.00055620","REF_FRAME":"TEME","CENTER_NAME":"EARTH","MEAN_ELEMENT_THEORY":"SGP4","APOAPSIS":"338.333","LAUNCH_DATE":"2022-09-24","ARG_OF_PERICENTER":"270.2000","OBJECT_ID":"2022-119AJ","TLE_LINE1":"1 53918U 22119AJ  22277.91667824 -.01238958  00000-0 -78729-2 0  9997","FILE":"3591597","SITE":"AFETR","OBJECT_TYPE":"PAYLOAD","DECAY_DATE":null,"TIME_SYSTEM":"UTC","MEAN_MOTION_DDOT":"0.0000000000000","REV_AT_EPOCH":"130","SEMIMAJOR_AXIS":"6712.734","MEAN_ANOMALY":"147.1075","PERIOD":"91.224","BSTAR":"-0.00787290000000","COUNTRY_CODE":"US","NORAD_CAT_ID":"53918","ELEMENT_SET_NO":"999","EPOCH":"2022-10-04T22:00:00.999936","GP_ID":"214193890","MEAN_MOTION":"15.78532779"},{"ELEMENT_SET_NO":"999","COUNTRY_CODE":"US","BSTAR":"-0.00810400000000","NORAD_CAT_ID":"53919","PERIOD":"91.222","MEAN_ANOMALY":"114.9884","SEMIMAJOR_AXIS":"6712.633","MEAN_MOTION":"15.78568461","EPOCH":"2022-10-04T22:00:00.999936","GP_ID":"214194641","FILE":"3591597","TLE_LINE1":"1 53919U 22119AK  22277.91667824 -.01270275  00000-0 -81040-2 0  9996","OBJECT_ID":"2022-119AK","REV_AT_EPOCH":"130","MEAN_MOTION_DDOT":"0.0000000000000","DECAY_DATE":null,"TIME_SYSTEM":"UTC","OBJECT_TYPE":"PAYLOAD","SITE":"AFETR","MEAN_ELEMENT_THEORY":"SGP4","APOAPSIS":"336.017","CENTER_NAME":"EARTH","ARG_OF_PERICENTER":"302.8205","LAUNCH_DATE":"2022-09-24","CLASSIFICATION_TYPE":"U","PERIAPSIS":"332.979","INCLINATION":"53.2184","EPHEMERIS_TYPE":"0","REF_FRAME":"TEME","ECCENTRICITY":"0.00022630","TLE_LINE2":"2 53919  53.2184 203.7458 0002263 302.8205 114.9884 15.78568461  1304","RA_OF_ASC_NODE":"203.7458","RCS_SIZE":null,"MEAN_MOTION_DOT":"-0.01270275","OBJECT_NAME":"STARLINK-5023"},{"EPHEMERIS_TYPE":"0","INCLINATION":"53.2184","PERIAPSIS":"330.409","CLASSIFICATION_TYPE":"U","RCS_SIZE":null,"MEAN_MOTION_DOT":"-0.01272977","OBJECT_NAME":"STARLINK-5025","RA_OF_ASC_NODE":"203.7425","TLE_LINE2":"2 53920  53.2184 203.7425 0005799 271.0102 148.6833 15.78637865  1303","ECCENTRICITY":"0.00057990","REF_FRAME":"TEME","CENTER_NAME":"EARTH","MEAN_ELEMENT_THEORY":"SGP4","APOAPSIS":"338.194","LAUNCH_DATE":"2022-09-24","ARG_OF_PERICENTER":"271.0102","OBJECT_ID":"2022-119AL","TLE_LINE1":"1 53920U 22119AL  22277.91667824 -.01272977  00000-0 -80776-2 0  9994","FILE":"3591597","SITE":"AFETR","OBJECT_TYPE":"PAYLOAD","DECAY_DATE":null,"TIME_SYSTEM":"UTC","MEAN_MOTION_DDOT":"0.0000000000000","REV_AT_EPOCH":"130","MEAN_ANOMALY":"148.6833","SEMIMAJOR_AXIS":"6712.436","PERIOD":"91.218","ELEMENT_SET_NO":"999","COUNTRY_CODE":"US","BSTAR":"-0.00807760000000","NORAD_CAT_ID":"53920","EPOCH":"2022-10-04T22:00:00.999936","GP_ID":"214194142","MEAN_MOTION":"15.78637865"}];
